IRIDIUM 36 [-]          
1 24967U 97056C   24062.91390781  .00000678  00000+0  22381-3 0  9996
2 24967  86.4014  10.8810 0002386  86.8314 273.3156 14.36655893384530
IRIDIUM 39 [-]          
1 25042U 97069D   24062.92303608  .00000950  00000+0  25122-3 0  9997
2 25042  86.3886  53.0084 0020642  80.1740 280.1792 14.47722542380747
IRIDIUM 38 [-]          
1 25043U 97069E   24063.09370286  .00000568  00000+0  18468-3 0  9993
2 25043  86.3904  71.2373 0001925 151.7898 208.3404 14.37113687378533
IRIDIUM 42 [-]          
1 25077U 97077A   24063.09110928  .00000523  00000+0  17530-3 0  9994
2 25077  86.3905  76.8376 0001937 106.0309 254.1101 14.35408029373597
IRIDIUM 44 [-]          
1 25078U 97077B   24063.47278604  .00000665  00000+0  20816-3 0  9991
2 25078  86.3914  59.8523 0003801 109.7437 250.4172 14.39229818376004
IRIDIUM 45 [-]          
1 25104U 97082A   24062.65868055  .00010937  00000+0  66187-3 0  9995
2 25104  86.3708 272.1418 0166779 266.2993  91.9155 14.99503934380877
IRIDIUM 24 [-]          
1 25105U 97082B   24062.64940033  .00000471  00000+0  14020-3 0  9993
2 25105  86.3865 279.9939 0011054 184.6185 175.4915 14.41003000375283
IRIDIUM 51 [-]          
1 25262U 98018A   24062.69886442  .00013186  00000+0  67128-3 0  9999
2 25262  86.3904 282.2603 0151676 213.4832 145.6748 15.07107585375358
